[{"OBJECT_NAME":"STARLINK-30907","OBJECT_ID":"2023-177B","EPOCH":"2026-03-09T22:00:01.999584","MEAN_MOTION":15.27570349,"ECCENTRICITY":0.00017529,"INCLINATION":43.0009,"RA_OF_ASC_NODE":349.075,"ARG_OF_PERICENTER":268.5333,"MEAN_ANOMALY":138.6096,"EPHEMERIS_TYPE":0,"CLASSIFICATION_TYPE":"U","NORAD_CAT_ID":58352,"ELEMENT_SET_NO":999,"REV_AT_EPOCH":573,"BSTAR":-0.00038850833,"MEAN_MOTION_DOT":-0.00010935,"MEAN_MOTION_DDOT":0},{"OBJECT_NAME":"CZ-6A DEB","OBJECT_ID":"2024-140YZ","EPOCH":"2026-03-09T14:14:13.172928","MEAN_MOTION":14.91044947,"ECCENTRICITY":0.0161166,"INCLINATION":89.0861,"RA_OF_ASC_NODE":285.7767,"ARG_OF_PERICENTER":146.5264,"MEAN_ANOMALY":214.6281,"EPHEMERIS_TYPE":0,"CLASSIFICATION_TYPE":"U","NORAD_CAT_ID":61432,"ELEMENT_SET_NO":999,"REV_AT_EPOCH":8368,"BSTAR":0.0010034,"MEAN_MOTION_DOT":0.0001278,"MEAN_MOTION_DDOT":0}]
